CCSDS_OMM_VERS,COMMENT,CREATION_DATE,ORIGINATOR,OBJECT_NAME,OBJECT_ID,CENTER_NAME,REF_FRAME,TIME_SYSTEM,MEAN_ELEMENT_THEORY,EPOCH,MEAN_MOTION,ECCENTRICITY,INCLINATION,RA_OF_ASC_NODE,ARG_OF_PERICENTER,MEAN_ANOMALY,EPHEMERIS_TYPE,CLASSIFICATION_TYPE,NORAD_CAT_ID,ELEMENT_SET_NO,REV_AT_EPOCH,BSTAR,MEAN_MOTION_DOT,MEAN_MOTION_DDOT,SEMIMAJOR_AXIS,PERIOD,APOAPSIS,PERIAPSIS,OBJECT_TYPE,RCS_SIZE,COUNTRY_CODE,LAUNCH_DATE,SITE,DECAY_DATE,FILE,GP_ID,TLE_LINE0,TLE_LINE1,TLE_LINE2
"3.0","GENERATED VIA SPACE-TRACK.ORG API","2026-03-25T17:29:05","18 SPCS","CZ-4 DEB","1999-057BZ","EARTH","TEME","UTC","SGP4","2026-03-25T10:21:24.318144","14.90125839","0.00452134","98.5601","147.0194","233.1264","126.5803","0","U","26187","999","40193","0.00022269140000","0.00002127","0.0000000000000","6975.680","96.636","629.084","566.005","DEBRIS","SMALL","PRC","1999-10-14","TSC","","5096884","317007284","0 CZ-4 DEB","1 26187U 99057BZ  26084.43153146  .00002127  00000-0  22269-3 0  9997","2 26187  98.5601 147.0194 0045213 233.1264 126.5803 14.90125839401931"
"3.0","GENERATED VIA SPACE-TRACK.ORG API","2026-03-25T17:29:05","18 SPCS","CZ-4 DEB","1999-057CG","EARTH","TEME","UTC","SGP4","2026-03-25T02:51:16.251840","14.71423075","0.00409707","98.1733","43.3475","239.8858","134.4603","0","U","26194","999","63255","0.00036543592000","0.00002240","0.0000000000000","7034.666","97.864","685.352","627.709","DEBRIS","SMALL","PRC","1999-10-14","TSC","","5096884","317007285","0 CZ-4 DEB","1 26194U 99057CG  26084.11893810  .00002240  00000-0  36544-3 0  9996","2 26194  98.1733  43.3475 0040971 239.8858 134.4603 14.71423075632551"
"3.0","GENERATED VIA SPACE-TRACK.ORG API","2026-03-25T17:29:05","18 SPCS","CZ-4 DEB","1999-057CM","EARTH","TEME","UTC","SGP4","2026-03-25T04:22:49.685664","14.69470565","0.00634580","98.3476","156.5385","152.2482","263.8152","0","U","26199","999","37373","0.00076124321000","0.00004599","0.0000000000000","7040.896","97.994","707.441","618.081","DEBRIS","SMALL","PRC","1999-10-14","TSC","","5096884","317006786","0 CZ-4 DEB","1 26199U 99057CM  26084.18251951  .00004599  00000-0  76124-3 0  9999","2 26199  98.3476 156.5385 0063458 152.2482 263.8152 14.69470565373736"
"3.0","GENERATED VIA SPACE-TRACK.ORG API","2026-03-25T17:29:05","18 SPCS","CZ-4 DEB","1999-057CN","EARTH","TEME","UTC","SGP4","2026-03-25T09:32:20.112864","14.78046555","0.00402645","98.2902","68.6816","212.2060","147.6690","0","U","26200","999","38414","0.00043759728000","0.00003147","0.0000000000000","7013.634","97.426","663.739","607.259","DEBRIS","SMALL","PRC","1999-10-14","TSC","","5096884","317007287","0 CZ-4 DEB","1 26200U 99057CN  26084.39745501  .00003147  00000-0  43760-3 0  9992","2 26200  98.2902  68.6816 0040265 212.2060 147.6690 14.78046555384145"
"3.0","GENERATED VIA SPACE-TRACK.ORG API","2026-03-25T17:29:05","18 SPCS","CZ-4 DEB","1999-057CV","EARTH","TEME","UTC","SGP4","2026-03-25T13:37:22.144224","14.86299668","0.00570856","98.3841","197.4140","322.1136","52.6551","0","U","26207","999","37125","0.00129029320000","0.00011650","0.0000000000000","6987.646","96.885","649.401","569.622","DEBRIS","SMALL","PRC","1999-10-14","TSC","","5096884","317007289","0 CZ-4 DEB","1 26207U 99057CV  26084.56761741  .00011650  00000-0  12903-2 0  9994","2 26207  98.3841 197.4140 0057086 322.1136  52.6551 14.86299668371253"
"3.0","GENERATED VIA SPACE-TRACK.ORG API","2026-03-25T17:29:05","18 SPCS","CZ-4 DEB","1999-057CX","EARTH","TEME","UTC","SGP4","2026-03-25T10:55:33.142944","14.65903762","0.00276744","98.6399","250.2616","349.5650","71.3071","0","U","26209","999","38506","0.00016902719000","0.00000874","0.0000000000000","7052.312","98.233","693.694","654.660","DEBRIS","SMALL","PRC","1999-10-14","TSC","","5096884","317007290","0 CZ-4 DEB","1 26209U 99057CX  26084.45524471  .00000874  00000-0  16903-3 0  9992","2 26209  98.6399 250.2616 0027674 349.5650  71.3071 14.65903762385069"
"3.0","GENERATED VIA SPACE-TRACK.ORG API","2026-03-25T17:29:05","18 SPCS","CZ-4 DEB","1999-057DJ","EARTH","TEME","UTC","SGP4","2026-03-25T13:25:07.669920","14.77621323","0.00681992","98.6410","196.9784","200.2578","170.2234","0","U","26220","999","39772","0.00018331306000","0.00001298","0.0000000000000","7014.980","97.454","684.686","589.003","DEBRIS","LARGE","PRC","1999-10-14","TSC","","5096884","317007291","0 CZ-4 DEB","1 26220U 99057DJ  26084.55911655  .00001298  00000-0  18331-3 0  9998","2 26220  98.6410 196.9784 0068199 200.2578 170.2234 14.77621323397726"
"3.0","GENERATED VIA SPACE-TRACK.ORG API","2026-03-25T04:32:27","18 SPCS","CZ-4 DEB","1999-057DY","EARTH","TEME","UTC","SGP4","2026-03-24T21:25:31.689696","14.55566046","0.00115803","98.5958","201.0678","159.3350","323.2296","0","U","26234","999","37805","0.00017682855000","0.00000723","0.0000000000000","7085.664","98.931","715.735","699.324","DEBRIS","SMALL","PRC","1999-10-14","TSC","","5096755","316973599","0 CZ-4 DEB","1 26234U 99057DY  26083.89272789  .00000723  00000-0  17683-3 0  9998","2 26234  98.5958 201.0678 0011580 159.3350 323.2296 14.55566046378050"
"3.0","GENERATED VIA SPACE-TRACK.ORG API","2026-03-25T17:29:05","18 SPCS","CZ-4 DEB","1999-057EV","EARTH","TEME","UTC","SGP4","2026-03-25T12:37:19.835328","14.74881506","0.00587326","98.3803","178.9480","280.2863","94.3524","0","U","26259","999","37187","0.00103078730000","0.00007057","0.0000000000000","7023.664","97.635","686.781","604.278","DEBRIS","SMALL","PRC","1999-10-14","TSC","","5096884","317006795","0 CZ-4 DEB","1 26259U 99057EV  26084.52592402  .00007057  00000-0  10308-2 0  9996","2 26259  98.3803 178.9480 0058733 280.2863  94.3524 14.74881506371876"
"3.0","GENERATED VIA SPACE-TRACK.ORG API","2026-03-25T17:29:05","18 SPCS","CZ-4 DEB","1999-057EW","EARTH","TEME","UTC","SGP4","2026-03-25T10:52:35.405184","14.76738292","0.00550293","98.3404","168.1962","263.0152","96.4795","0","U","26260","999","37174","0.00098229683000","0.00007001","0.0000000000000","7017.776","97.512","678.259","601.022","DEBRIS","SMALL","PRC","1999-10-14","TSC","","5096884","317007296","0 CZ-4 DEB","1 26260U 99057EW  26084.45318756  .00007001  00000-0  98230-3 0  9998","2 26260  98.3404 168.1962 0055029 263.0152  96.4795 14.76738292371740"
"3.0","GENERATED VIA SPACE-TRACK.ORG API","2026-03-25T17:29:05","18 SPCS","CZ-4 DEB","1999-057EY","EARTH","TEME","UTC","SGP4","2026-03-25T05:32:41.944128","14.81516359","0.00390452","98.3314","180.8254","55.5561","334.8887","0","U","26262","999","37537","0.00107451350000","0.00008487","0.0000000000000","7002.679","97.198","651.886","597.202","DEBRIS","SMALL","PRC","1999-10-14","TSC","","5096884","317006796","0 CZ-4 DEB","1 26262U 99057EY  26084.23104102  .00008487  00000-0  10745-2 0  9997","2 26262  98.3314 180.8254 0039045  55.5561 334.8887 14.81516359375373"
"3.0","GENERATED VIA SPACE-TRACK.ORG API","2026-03-25T17:29:05","18 SPCS","CZ-4 DEB","1999-057FC","EARTH","TEME","UTC","SGP4","2026-03-24T23:58:26.621472","14.72773775","0.00688291","98.4147","181.0957","341.2023","18.6643","0","U","26266","999","37084","0.00081335036000","0.00005340","0.0000000000000","7030.364","97.775","700.618","603.840","DEBRIS","SMALL","PRC","1999-10-14","TSC","","5096884","317006797","0 CZ-4 DEB","1 26266U 99057FC  26083.99891923  .00005340  00000-0  81335-3 0  9996","2 26266  98.4147 181.0957 0068829 341.2023  18.6643 14.72773775370846"
"3.0","GENERATED VIA SPACE-TRACK.ORG API","2026-03-25T17:29:05","18 SPCS","CZ-4 DEB","1999-057FJ","EARTH","TEME","UTC","SGP4","2026-03-25T04:28:04.827936","14.81191662","0.00491195","98.2645","173.4716","356.3183","63.2214","0","U","26272","999","37642","0.00081640188000","0.00006431","0.0000000000000","7003.702","97.219","659.969","591.165","DEBRIS","SMALL","PRC","1999-10-14","TSC","","5096884","317007298","0 CZ-4 DEB","1 26272U 99057FJ  26084.18616699  .00006431  00000-0  81640-3 0  9991","2 26272  98.2645 173.4716 0049119 356.3183  63.2214 14.81191662376426"
"3.0","GENERATED VIA SPACE-TRACK.ORG API","2026-03-25T17:29:05","18 SPCS","CZ-4 DEB","1999-057FK","EARTH","TEME","UTC","SGP4","2026-03-25T15:24:50.884704","14.81973431","0.00581078","98.6985","228.5188","193.5869","181.0048","0","U","26273","999","39702","0.00026532166000","0.00002100","0.0000000000000","7001.239","97.168","663.787","582.421","DEBRIS","MEDIUM","PRC","1999-10-14","TSC","","5096884","317006798","0 CZ-4 DEB","1 26273U 99057FK  26084.64225561  .00002100  00000-0  26532-3 0  9995","2 26273  98.6985 228.5188 0058108 193.5869 181.0048 14.81973431397028"
"3.0","GENERATED VIA SPACE-TRACK.ORG API","2026-03-25T17:29:05","18 SPCS","CZ-4 DEB","1999-057FY","EARTH","TEME","UTC","SGP4","2026-03-25T03:07:22.982304","14.63925067","0.00603218","98.3929","148.2143","150.6575","231.4670","0","U","26286","999","37491","0.00053052219000","0.00002798","0.0000000000000","7058.666","98.366","723.110","637.951","DEBRIS","SMALL","PRC","1999-10-14","TSC","","5096884","317007300","0 CZ-4 DEB","1 26286U 99057FY  26084.13012711  .00002798  00000-0  53052-3 0  9994","2 26286  98.3929 148.2143 0060322 150.6575 231.4670 14.63925067374911"
"3.0","GENERATED VIA SPACE-TRACK.ORG API","2026-03-25T17:29:05","18 SPCS","CZ-4 DEB","1999-057GL","EARTH","TEME","UTC","SGP4","2026-03-25T10:53:05.909568","14.68939650","0.00607419","98.3609","152.5793","149.3105","222.7068","0","U","26300","999","37383","0.00067572069000","0.00004015","0.0000000000000","7042.592","98.030","707.235","621.679","DEBRIS","SMALL","PRC","1999-10-14","TSC","","5096884","317007302","0 CZ-4 DEB","1 26300U 99057GL  26084.45354062  .00004015  00000-0  67572-3 0  9990","2 26300  98.3609 152.5793 0060742 149.3105 222.7068 14.68939650373834"
